NORAD_CAT_ID,OBJECT_NAME,OBJECT_TYPE,EPOCH,MEAN_MOTION,ECCENTRICITY,INCLINATION,RA_OF_ASC_NODE,ARG_OF_PERICENTER,MEAN_ANOMALY,BSTAR,MEAN_MOTION_DOT,MEAN_MOTION_DDOT,TLE_LINE0,TLE_LINE1,TLE_LINE2,SEMIMAJOR_AXIS,PERIOD,APOGEE,PERIGEE,DECAYED
54071.0,STARLINK-5168,PAYLOAD,2023-11-24 11:02:25,15.08851419,0.0001341,53.2172,137.9586,80.0797,280.0346,-0.00012585,-2.291e-05,0.0,0 STARLINK-5168,1 54071U 22136W   23328.46001903 -.00002291  00000-0 -12585-3 0  9992,2 54071  53.2172 137.9586 0001341  80.0797 280.0346 15.08851419 61088,6917.845,95.437,540.638,538.783,0.0
54071.0,STARLINK-5168,PAYLOAD,2023-11-24 18:59:21,15.0884478,0.0001301,53.2169,136.4726,84.8762,275.2379,9.7005e-05,1.256e-05,0.0,0 STARLINK-5168,1 54071U 22136W   23328.79121900  .00001256  00000-0  97005-4 0  9997,2 54071  53.2169 136.4726 0001301  84.8762 275.2379 15.08844780 60651,6917.866,95.437,540.631,538.831,0.0
54071.0,STARLINK-5168,PAYLOAD,2023-11-25 20:25:31,15.08848636,0.0001415,53.2171,131.7152,81.661,278.4542,0.00017525,2.503e-05,0.0,0 STARLINK-5168,1 54071U 22136W   23329.85105721  .00002503  00000-0  17525-3 0  9992,2 54071  53.2171 131.7152 0001415  81.6610 278.4542 15.08848636 60817,6917.854,95.437,540.698,538.74,0.0
54071.0,STARLINK-5168,PAYLOAD,2023-11-26 10:43:59,15.08842526,0.0001226,53.2172,129.0396,87.463,272.6503,0.00016637,2.361e-05,0.0,0 STARLINK-5168,1 54071U 22136W   23330.44721895  .00002361  00000-0  16637-3 0  9990,2 54071  53.2172 129.0396 0001226  87.4630 272.6503 15.08842526 60909,6917.873,95.437,540.586,538.89,0.0
54071.0,STARLINK-5168,PAYLOAD,2023-11-26 17:05:31,15.0884968,0.0001536,53.2174,127.8509,81.9589,278.1577,0.00011424,1.531e-05,0.0,0 STARLINK-5168,1 54071U 22136W   23330.71217464  .00001531  00000-0  11424-3 0  9999,2 54071  53.2174 127.8509 0001536  81.9589 278.1577 15.08849680 60943,6917.851,95.437,540.778,538.653,0.0
54071.0,STARLINK-5168,PAYLOAD,2023-11-27 10:34:45,15.0885392,0.0001483,53.2173,124.5797,88.3939,271.7223,9.1904e-05,1.176e-05,0.0,0 STARLINK-5168,1 54071U 22136W   23331.44080769  .00001176  00000-0  91904-4 0  9993,2 54071  53.2173 124.5797 0001483  88.3939 271.7223 15.08853920 61531,6917.838,95.437,540.729,538.677,0.0
54071.0,STARLINK-5168,PAYLOAD,2023-11-27 13:45:32,15.08852317,0.0001433,53.2173,123.9839,96.3141,263.8015,7.7306e-05,9.43e-06,0.0,0 STARLINK-5168,1 54071U 22136W   23331.57328749  .00000943  00000-0  77306-4 0  9991,2 54071  53.2173 123.9839 0001433  96.3141 263.8015 15.08852317 61079,6917.843,95.437,540.699,538.716,0.0
54071.0,STARLINK-5168,PAYLOAD,2023-11-27 16:56:18,15.08844765,0.0001171,53.2172,123.3923,103.732,256.3803,-2.6302e-05,-7.06e-06,0.0,0 STARLINK-5168,1 54071U 22136W   23331.70577347 -.00000706  00000-0 -26302-4 0  9995,2 54071  53.2172 123.3923 0001171 103.7320 256.3803 15.08844765 61572,6917.866,95.437,540.541,538.921,0.0
54071.0,STARLINK-5168,PAYLOAD,2023-11-28 10:25:34,15.08835089,0.0001401,53.2176,120.119,99.7998,260.3153,-6.2291e-05,-1.279e-05,0.0,0 STARLINK-5168,1 54071U 22136W   23332.43442318 -.00001279  00000-0 -62291-4 0  9998,2 54071  53.2176 120.1190 0001401  99.7998 260.3153 15.08835089 61682,6917.895,95.438,540.73,538.791,0.0
54071.0,STARLINK-5168,PAYLOAD,2023-11-28 13:36:20,15.08837131,0.000143,53.2177,119.5255,95.7432,264.3724,-2.896e-05,-7.49e-06,0.0,0 STARLINK-5168,1 54071U 22136W   23332.56690176 -.00000749  00000-0 -28960-4 0  9995,2 54071  53.2177 119.5255 0001430  95.7432 264.3724 15.08837131 61226,6917.889,95.438,540.743,538.765,0.0
54071.0,STARLINK-5168,PAYLOAD,2023-11-28 16:47:06,15.08840047,0.0001488,53.2181,118.9309,95.4361,264.6801,3.0676e-06,-2.39e-06,0.0,0 STARLINK-5168,1 54071U 22136W   23332.69937971 -.00000239  00000-0  30676-5 0  9997,2 54071  53.2181 118.9309 0001488  95.4361 264.6801 15.08840047 61246,6917.88,95.438,540.775,538.716,0.0
54071.0,STARLINK-5168,PAYLOAD,2023-11-29 13:27:07,15.08838418,0.0001366,53.219,115.0672,100.6061,259.5086,7.1994e-05,8.58e-06,0.0,0 STARLINK-5168,1 54071U 22136W   23333.56050083  .00000858  00000-0  71994-4 0  9997,2 54071  53.2190 115.0672 0001366 100.6061 259.5086 15.08838418 61379,6917.885,95.438,540.695,538.805,0.0
54071.0,STARLINK-5168,PAYLOAD,2023-11-30 10:07:08,15.08833284,0.0001486,53.2181,111.1994,93.3082,266.808,7.3394e-05,8.8e-06,0.0,0 STARLINK-5168,1 54071U 22136W   23334.42162820  .00000880  00000-0  73394-4 0  9997,2 54071  53.2181 111.1994 0001486  93.3082 266.8080 15.08833284 61985,6917.901,95.438,540.794,538.738,0.0
54071.0,STARLINK-5168,PAYLOAD,2023-12-01 16:19:27,15.08854077,0.0001305,53.2176,105.5473,104.8748,255.2388,0.00030638,4.593e-05,0.0,0 STARLINK-5168,1 54071U 22136W   23335.68018191  .00004593  00000-0  30638-3 0  9995,2 54071  53.2176 105.5473 0001305 104.8748 255.2388 15.08854077 62173,6917.837,95.437,540.605,538.8,0.0
54071.0,STARLINK-5168,PAYLOAD,2023-12-02 08:13:19,15.08855715,0.0001499,53.2172,102.577,70.3495,289.7659,0.00038117,5.786e-05,0.0,0 STARLINK-5168,1 54071U 22136W   23336.34258187  .00005786  00000-0  38117-3 0  9995,2 54071  53.2172 102.5770 0001499  70.3495 289.7659 15.08855715 62270,6917.832,95.437,540.734,538.66,0.0
54071.0,STARLINK-5168,PAYLOAD,2023-12-02 14:34:51,15.0886208,0.0001717,53.2173,101.3879,74.9169,285.2013,0.00011811,1.593e-05,0.0,0 STARLINK-5168,1 54071U 22136W   23336.60753630  .00001593  00000-0  11811-3 0  9991,2 54071  53.2173 101.3879 0001717  74.9169 285.2013 15.08862080 61838,6917.813,95.436,540.866,538.49,0.0
54071.0,STARLINK-5168,PAYLOAD,2023-12-03 08:04:07,15.08829859,0.0001304,53.2158,98.1165,81.7948,278.3192,-0.00024007,-4.105e-05,0.0,0 STARLINK-5168,1 54071U 22136W   23337.33619455 -.00004105  00000-0 -24007-3 0  9993,2 54071  53.2158  98.1165 0001304  81.7948 278.3192 15.08829859 62429,6917.911,95.438,540.678,538.874,0.0
54071.0,STARLINK-5168,PAYLOAD,2023-12-03 14:25:40,15.08815294,0.0001468,53.217,96.9236,54.9738,305.1391,-0.00038584,-6.419e-05,0.0,0 STARLINK-5168,1 54071U 22136W   23337.60116511 -.00006419  00000-0 -38584-3 0  9993,2 54071  53.2170  96.9236 0001468  54.9738 305.1391 15.08815294 61986,6917.956,95.439,540.836,538.805,0.0
54071.0,STARLINK-5168,PAYLOAD,2023-12-04 11:05:41,15.08841628,0.0001301,53.2171,93.0589,97.7216,262.3924,0.00010113,1.322e-05,0.0,0 STARLINK-5168,1 54071U 22136W   23338.46228062  .00001322  00000-0  10113-3 0  9997,2 54071  53.2171  93.0589 0001301  97.7216 262.3924 15.08841628 62592,6917.875,95.437,540.64,538.84,0.0
54071.0,STARLINK-5168,PAYLOAD,2023-12-04 12:41:05,15.08823315,0.0001219,53.2163,92.7603,75.6039,284.5088,0.00011931,1.611e-05,0.0,0 STARLINK-5168,1 54071U 22136W   23338.52853056  .00001611  00000-0  11931-3 0  9991,2 54071  53.2163  92.7603 0001219  75.6039 284.5088 15.08823315 62121,6917.931,95.439,540.64,538.953,0.0
54071.0,STARLINK-5168,PAYLOAD,2023-12-05 10:56:27,15.08815576,9.84e-05,53.2184,88.5976,106.9368,253.1732,0.00093618,0.00014633,0.0,0 STARLINK-5168,1 54071U 22136W   23339.45587882  .00014633  00000-0  93618-3 0  9995,2 54071  53.2184  88.5976 0000984 106.9368 253.1732 15.08815576 62747,6917.955,95.439,540.501,539.139,0.0
54071.0,STARLINK-5168,PAYLOAD,2023-12-05 12:31:50,15.08840564,0.0001298,53.2183,88.3,120.5342,239.5779,0.00048667,7.466e-05,0.0,0 STARLINK-5168,1 54071U 22136W   23339.52211307  .00007466  00000-0  48667-3 0  9999,2 54071  53.2183  88.3000 0001298 120.5342 239.5779 15.08840564 62277,6917.879,95.438,540.642,538.846,0.0
54071.0,STARLINK-5168,PAYLOAD,2023-12-06 10:47:14,15.08850589,0.0001351,53.2183,84.139,112.5547,247.5588,8.6543e-05,1.09e-05,0.0,0 STARLINK-5168,1 54071U 22136W   23340.44947678  .00001090  00000-0  86543-4 0  9992,2 54071  53.2183  84.1390 0001351 112.5547 247.5588 15.08850589 62894,6917.848,95.437,540.648,538.778,0.0
54071.0,STARLINK-5168,PAYLOAD,2023-12-06 12:22:37,15.08849254,0.0001434,53.2187,83.8417,117.7335,242.3803,7.5733e-05,9.18e-06,0.0,0 STARLINK-5168,1 54071U 22136W   23340.51571709  .00000918  00000-0  75733-4 0  9995,2 54071  53.2187  83.8417 0001434 117.7335 242.3803 15.08849254 62427,6917.852,95.437,540.709,538.725,0.0
54071.0,STARLINK-5168,PAYLOAD,2023-12-07 12:13:25,15.08842226,0.0001226,53.218,79.3818,87.5982,272.515,-8.98e-05,-1.717e-05,0.0,0 STARLINK-5168,1 54071U 22136W   23341.50932177 -.00001717  00000-0 -89800-4 0  9995,2 54071  53.2180  79.3818 0001226  87.5982 272.5150 15.08842226 63058,6917.874,95.437,540.587,538.89,0.0
54071.0,STARLINK-5168,PAYLOAD,2023-12-08 12:04:12,15.08836714,0.0001434,53.2191,74.9201,104.0753,256.0398,7.5073e-05,9.07e-06,0.0,0 STARLINK-5168,1 54071U 22136W   23342.50291828  .00000907  00000-0  75073-4 0  9992,2 54071  53.2191  74.9201 0001434 104.0753 256.0398 15.08836714 62728,6917.89,95.438,540.747,538.763,0.0
54071.0,STARLINK-5168,PAYLOAD,2023-12-09 11:54:59,15.08835884,0.0001337,53.2187,70.4591,106.4188,253.6951,3.1658e-05,2.16e-06,0.0,0 STARLINK-5168,1 54071U 22136W   23343.49652266  .00000216  00000-0  31658-4 0  9992,2 54071  53.2187  70.4591 0001337 106.4188 253.6951 15.08835884 63351,6917.893,95.438,540.683,538.833,0.0
54071.0,STARLINK-5168,PAYLOAD,2023-12-09 13:30:22,15.0883621,0.0001143,53.2178,70.1622,84.8243,275.288,4.3267e-05,4.01e-06,0.0,0 STARLINK-5168,1 54071U 22136W   23343.56276288  .00000401  00000-0  43267-4 0  9991,2 54071  53.2178  70.1622 0001143  84.8243 275.2880 15.08836210 62881,6917.892,95.438,540.548,538.966,0.0
54071.0,STARLINK-5168,PAYLOAD,2023-12-09 15:05:45,15.08836325,0.0001146,53.2177,69.8648,80.9867,279.1255,4.4725e-05,4.24e-06,0.0,0 STARLINK-5168,1 54071U 22136W   23343.62900303  .00000424  00000-0  44725-4 0  9995,2 54071  53.2177  69.8648 0001146  80.9867 279.1255 15.08836325 62892,6917.892,95.438,540.549,538.964,0.0
54071.0,STARLINK-5168,PAYLOAD,2023-12-10 11:45:48,15.08828231,0.0001299,53.2186,66.0008,80.843,279.2709,-8.9686e-06,-4.31e-06,0.0,0 STARLINK-5168,1 54071U 22136W   23344.49014240 -.00000431  00000-0 -89686-5 0  9993,2 54071  53.2186  66.0008 0001299  80.8430 279.2709 15.08828231 63506,6917.916,95.438,540.68,538.883,0.0
